{"AM/Արարատ": {"lang": "hy", "zipex": "0601,0823", "isoid": "AR", "zip": "0[6-8]", "lname": "Ararat", "key": "Արարատ", "id": "data/AM/Արարատ"}, "AM/Երևան": {"lang": "hy", "zipex": "0000,0099", "isoid": "ER", "zip": "00", "lname": "Yerevan", "key": "Երևան", "id": "data/AM/Երևան"}, "AM": {"lang": "hy", "sub_zipexs": "0201,0514~0601,0823~0901,1149~1201,1626~0000,0099~1701,2117~2201,2506~2601,3126~3201,3519~3601,3810~3901,4216", "zipex": "375010,0002,0010", "name": "ARMENIA", "zip": "(37)?\\d{4}", "fmt": "%N%n%O%n%A%n%Z%n%C%n%S", "languages": "hy", "lfmt": "%N%n%O%n%A%n%Z%n%C%n%S", "sub_lnames": "Aragatsotn~Ararat~Armavir~Gegharkunik~Yerevan~Lori~Kotayk~Shirak~Syunik~Vayots Dzor~Tavush", "sub_keys": "Արագածոտն~Արարատ~Արմավիր~Գեղարքունիք~Երևան~Լոռի~Կոտայք~Շիրակ~Սյունիք~Վայոց ձոր~Տավուշ", "key": "AM", "sub_isoids": "AG~AR~AV~GR~ER~LO~KT~SH~SU~VD~TV", "id": "data/AM", "sub_zips": "0[2-5]~0[6-8]~09|1[01]~1[2-6]~00~1[7-9]|2[01]~2[2-5]~2[6-9]|3[01]~3[2-5]~3[6-8]~39|4[0-2]"}, "AM/Լոռի": {"lang": "hy", "zipex": "1701,2117", "isoid": "LO", "zip": "1[7-9]|2[01]", "lname": "Lori", "key": "Լոռի", "id": "data/AM/Լոռի"}, "AM/Սյունիք": {"lang": "hy", "zipex": "3201,3519", "isoid": "SU", "zip": "3[2-5]", "lname": "Syunik", "key": "Սյունիք", "id": "data/AM/Սյունիք"}, "AM/Տավուշ": {"lang": "hy", "zipex": "3901,4216", "isoid": "TV", "zip": "39|4[0-2]", "lname": "Tavush", "key": "Տավուշ", "id": "data/AM/Տավուշ"}, "AM/Կոտայք": {"lang": "hy", "zipex": "2201,2506", "isoid": "KT", "zip": "2[2-5]", "lname": "Kotayk", "key": "Կոտայք", "id": "data/AM/Կոտայք"}, "AM/Շիրակ": {"lang": "hy", "zipex": "2601,3126", "isoid": "SH", "zip": "2[6-9]|3[01]", "lname": "Shirak", "key": "Շիրակ", "id": "data/AM/Շիրակ"}, "AM/Արագածոտն": {"lang": "hy", "zipex": "0201,0514", "isoid": "AG", "zip": "0[2-5]", "lname": "Aragatsotn", "key": "Արագածոտն", "id": "data/AM/Արագածոտն"}, "AM/Արմավիր": {"lang": "hy", "zipex": "0901,1149", "isoid": "AV", "zip": "09|1[01]", "lname": "Armavir", "key": "Արմավիր", "id": "data/AM/Արմավիր"}, "AM/Գեղարքունիք": {"lang": "hy", "zipex": "1201,1626", "isoid": "GR", "zip": "1[2-6]", "lname": "Gegharkunik", "key": "Գեղարքունիք", "id": "data/AM/Գեղարքունիք"}, "AM/Վայոց ձոր": {"lang": "hy", "zipex": "3601,3810", "isoid": "VD", "zip": "3[6-8]", "lname": "Vayots Dzor", "key": "Վայոց ձոր", "id": "data/AM/Վայոց ձոր"}}