{"CA--fr/BC": {}, "CA--fr/AB": {}, "CA/NB": {"lang": "en", "zip": "E", "id": "data/CA/NB", "key": "NB", "name": "New Brunswick"}, "CA/NL": {"lang": "en", "zip": "A", "id": "data/CA/NL", "key": "NL", "name": "Newfoundland and Labrador"}, "CA--fr/MB": {}, "CA": {"lang": "en", "upper": "ACNOSZ", "zipex": "H3Z 2Y7,V8X 3X4,T0L 1K0,T0H 1A0,K1A 0B1", "sub_zips": "T~V~R~E~A~X0E|X0G|X1A~B~X0A|X0B|X0C~K|L|M|N|P~C~G|H|J|K1A~S|R8A~Y", "zip": "[ABCEGHJKLMNPRSTVXY]\\d[ABCEGHJ-NPRSTV-Z][ ]?\\d[ABCEGHJ-NPRSTV-Z]\\d", "fmt": "%N%n%O%n%A%n%C %S %Z", "id": "data/CA", "languages": "en~fr", "sub_keys": "AB~BC~MB~NB~NL~NT~NS~NU~ON~PE~QC~SK~YT", "key": "CA", "posturl": "http://www.canadapost.ca/cpotools/apps/fpc/personal/findByCity?execution=e2s1", "require": "ACSZ", "sub_names": "Alberta~British Columbia~Manitoba~New Brunswick~Newfoundland and Labrador~Northwest Territories~Nova Scotia~Nunavut~Ontario~Prince Edward Island~Quebec~Saskatchewan~Yukon", "name": "CANADA"}, "CA/NT": {"lang": "en", "zip": "X0E|X0G|X1A", "id": "data/CA/NT", "key": "NT", "name": "Northwest Territories"}, "CA/NU": {"lang": "en", "zip": "X0A|X0B|X0C", "id": "data/CA/NU", "key": "NU", "name": "Nunavut"}, "CA--fr/NS": {}, "CA--fr/QC": {}, "CA/NS": {"lang": "en", "zip": "B", "id": "data/CA/NS", "key": "NS", "name": "Nova Scotia"}, "CA--fr/SK": {}, "CA--fr/YT": {}, "CA/QC": {"lang": "en", "zip": "G|H|J|K1A", "id": "data/CA/QC", "key": "QC", "name": "Quebec"}, "CA/PE": {"lang": "en", "zip": "C", "id": "data/CA/PE", "key": "PE", "name": "Prince Edward Island"}, "CA--fr/NT": {}, "CA--fr/NU": {}, "CA--fr": {"lang": "fr", "upper": "ACNOSZ", "zipex": "H3Z 2Y7,V8X 3X4,T0L 1K0,T0H 1A0,K1A 0B1", "sub_zips": "T~V~C~R~E~B~X0A|X0B|X0C~K|L|M|N|P~G|H|J|K1A~S|R8A~A~X0E|X0G|X1A~Y", "zip": "[ABCEGHJKLMNPRSTVXY]\\d[ABCEGHJ-NPRSTV-Z][ ]?\\d[ABCEGHJ-NPRSTV-Z]\\d", "fmt": "%N%n%O%n%A%n%C %S %Z", "id": "data/CA--fr", "sub_keys": "AB~BC~PE~MB~NB~NS~NU~ON~QC~SK~NL~NT~YT", "key": "CA", "posturl": "http://www.canadapost.ca/cpotools/apps/fpc/personal/findByCity?execution=e2s1", "require": "ACSZ", "sub_names": "Alberta~Colombie-Britannique~Ile-du-Prince-Edouard~Manitoba~Nouveau-Brunswick~Nouvelle-Ecosse~Nunavut~Ontario~Qu√©bec~Saskatchewan~Terre-Neuve-et-Labrador~Territoires du Nord-Ouest~Yukon", "name": "CANADA"}, "CA/YT": {"lang": "en", "zip": "Y", "id": "data/CA/YT", "key": "YT", "name": "Yukon"}, "CA/AB": {"lang": "en", "zip": "T", "id": "data/CA/AB", "key": "AB", "name": "Alberta"}, "CA/SK": {"lang": "en", "zip": "S|R8A", "id": "data/CA/SK", "key": "SK", "name": "Saskatchewan"}, "CA--fr/PE": {}, "CA/BC": {"lang": "en", "zip": "V", "id": "data/CA/BC", "key": "BC", "name": "British Columbia"}, "CA--fr/NB": {}, "CA/ON": {"lang": "en", "zip": "K|L|M|N|P", "id": "data/CA/ON", "key": "ON", "name": "Ontario"}, "CA--fr/NL": {}, "CA--fr/ON": {}, "CA/MB": {"lang": "en", "zip": "R", "id": "data/CA/MB", "key": "MB", "name": "Manitoba"}}