{"AR/Tierra del Fuego": {"lang": "es", "isoid": "V", "zip": "V?9", "key": "Tierra del Fuego", "id": "data/AR/Tierra del Fuego", "name": "Tierra del Fuego"}, "AR/San Luis": {"lang": "es", "isoid": "D", "zip": "D?[4-6]", "key": "San Luis", "id": "data/AR/San Luis", "name": "San Luis"}, "AR/Salta": {"lang": "es", "isoid": "A", "zip": "A?[34]", "key": "Salta", "id": "data/AR/Salta", "name": "Salta"}, "AR/Chubut": {"lang": "es", "isoid": "U", "zip": "U?[89]", "key": "Chubut", "id": "data/AR/Chubut", "name": "Chubut"}, "AR/Buenos Aires": {"lang": "es", "isoid": "B", "zip": "B?[1-36-8]", "key": "Buenos Aires", "id": "data/AR/Buenos Aires", "name": "Buenos Aires"}, "AR/Santa Cruz": {"lang": "es", "isoid": "Z", "zip": "Z?[89]", "key": "Santa Cruz", "id": "data/AR/Santa Cruz", "name": "Santa Cruz"}, "AR": {"lang": "es", "upper": "ACZ", "zipex": "C1070AAM,C1000WAM,B1000TBU,X5187XAB", "sub_zips": "B?[1-36-8]~K?[45]~H?3~U?[89]~C?1~X?[235-8]~W?3~E?[1-3]~P?[37]~Y?4~L?[3568]~F?5~M?[56]~N?3~Q?[38]~R?[89]~A?[34]~J?5~D?[4-6]~Z?[89]~S?[2368]~G?[2-5]~V?9~T?[45]", "zip": "((?:[A-HJ-NP-Z])?\\d{4})([A-Z]{3})?", "fmt": "%N%n%O%n%A%n%Z %C%n%S", "languages": "es", "sub_keys": "Buenos Aires~Catamarca~Chaco~Chubut~Ciudad Autónoma de Buenos Aires~Córdoba~Corrientes~Entre Ríos~Formosa~Jujuy~La Pampa~La Rioja~Mendoza~Misiones~Neuquén~Río Negro~Salta~San Juan~San Luis~Santa Cruz~Santa Fe~Santiago del Estero~Tierra del Fuego~Tucumán", "key": "AR", "sub_isoids": "B~K~H~U~C~X~W~E~P~Y~L~F~M~N~Q~R~A~J~D~Z~S~G~V~T", "posturl": "http://www.correoargentino.com.ar/formularios/cpa", "id": "data/AR", "sub_names": "Buenos Aires~Catamarca~Chaco~Chubut~Ciudad Autónoma de Buenos Aires~Córdoba~Corrientes~Entre Ríos~Formosa~Jujuy~La Pampa~La Rioja~Mendoza~Misiones~Neuquén~Río Negro~Salta~San Juan~San Luis~Santa Cruz~Santa Fe~Santiago del Estero~Tierra del Fuego~Tucumán", "name": "ARGENTINA"}, "AR/Chaco": {"lang": "es", "isoid": "H", "zip": "H?3", "key": "Chaco", "id": "data/AR/Chaco", "name": "Chaco"}, "AR/La Pampa": {"lang": "es", "isoid": "L", "zip": "L?[3568]", "key": "La Pampa", "id": "data/AR/La Pampa", "name": "La Pampa"}, "AR/Neuquén": {"lang": "es", "isoid": "Q", "zip": "Q?[38]", "key": "Neuquén", "id": "data/AR/Neuquén", "name": "Neuquén"}, "AR/Santiago del Estero": {"lang": "es", "isoid": "G", "zip": "G?[2-5]", "key": "Santiago del Estero", "id": "data/AR/Santiago del Estero", "name": "Santiago del Estero"}, "AR/Tucumán": {"lang": "es", "isoid": "T", "zip": "T?[45]", "key": "Tucumán", "id": "data/AR/Tucumán", "name": "Tucumán"}, "AR/Misiones": {"lang": "es", "isoid": "N", "zip": "N?3", "key": "Misiones", "id": "data/AR/Misiones", "name": "Misiones"}, "AR/Santa Fe": {"lang": "es", "isoid": "S", "zip": "S?[2368]", "key": "Santa Fe", "id": "data/AR/Santa Fe", "name": "Santa Fe"}, "AR/Corrientes": {"lang": "es", "isoid": "W", "zip": "W?3", "key": "Corrientes", "id": "data/AR/Corrientes", "name": "Corrientes"}, "AR/Entre Ríos": {"lang": "es", "isoid": "E", "zip": "E?[1-3]", "key": "Entre Ríos", "id": "data/AR/Entre Ríos", "name": "Entre Ríos"}, "AR/Formosa": {"lang": "es", "isoid": "P", "zip": "P?[37]", "key": "Formosa", "id": "data/AR/Formosa", "name": "Formosa"}, "AR/Jujuy": {"lang": "es", "isoid": "Y", "zip": "Y?4", "key": "Jujuy", "id": "data/AR/Jujuy", "name": "Jujuy"}, "AR/Ciudad Autónoma de Buenos Aires": {"lang": "es", "isoid": "C", "zip": "C?1", "key": "Ciudad Autónoma de Buenos Aires", "id": "data/AR/Ciudad Autónoma de Buenos Aires", "name": "Ciudad Autónoma de Buenos Aires"}, "AR/Mendoza": {"lang": "es", "isoid": "M", "zip": "M?[56]", "key": "Mendoza", "id": "data/AR/Mendoza", "name": "Mendoza"}, "AR/San Juan": {"lang": "es", "isoid": "J", "zip": "J?5", "key": "San Juan", "id": "data/AR/San Juan", "name": "San Juan"}, "AR/Río Negro": {"lang": "es", "isoid": "R", "zip": "R?[89]", "key": "Río Negro", "id": "data/AR/Río Negro", "name": "Río Negro"}, "AR/Córdoba": {"lang": "es", "isoid": "X", "zip": "X?[235-8]", "key": "Córdoba", "id": "data/AR/Córdoba", "name": "Córdoba"}, "AR/Catamarca": {"lang": "es", "isoid": "K", "zip": "K?[45]", "key": "Catamarca", "id": "data/AR/Catamarca", "name": "Catamarca"}, "AR/La Rioja": {"lang": "es", "isoid": "F", "zip": "F?5", "key": "La Rioja", "id": "data/AR/La Rioja", "name": "La Rioja"}}