{"EG/البحيرة": {"lang": "ar", "zipex": "22000", "isoid": "BH", "zip": "22", "lname": "El Beheira Governorate", "key": "البحيرة", "id": "data/EG/البحيرة"}, "EG/الإسماعيلية": {"lang": "ar", "zipex": "41000", "isoid": "IS", "zip": "41", "lname": "Ismailia Governorate", "key": "الإسماعيلية", "id": "data/EG/الإسماعيلية"}, "EG/القاهرة": {"lang": "ar", "zipex": "11000", "isoid": "C", "zip": "11", "lname": "Cairo Governorate", "key": "القاهرة", "id": "data/EG/القاهرة"}, "EG/بورسعيد": {"lang": "ar", "zipex": "42000", "isoid": "PTS", "zip": "42", "lname": "Port Said Governorate", "key": "بورسعيد", "id": "data/EG/بورسعيد"}, "EG/القليوبية": {"lang": "ar", "zipex": "13000", "isoid": "KB", "zip": "13", "lname": "Qalyubia Governorate", "key": "القليوبية", "id": "data/EG/القليوبية"}, "EG/جنوب سيناء": {"lang": "ar", "zipex": "46000", "isoid": "JS", "zip": "46", "lname": "South Sinai Governorate", "key": "جنوب سيناء", "id": "data/EG/جنوب سيناء"}, "EG/الأقصر": {"lang": "ar", "zipex": "85000", "isoid": "LX", "zip": "85", "lname": "Luxor Governorate", "key": "الأقصر", "id": "data/EG/الأقصر"}, "EG/السويس": {"lang": "ar", "zipex": "43000", "isoid": "SUZ", "zip": "43", "lname": "Suez Governorate", "key": "السويس", "id": "data/EG/السويس"}, "EG/مطروح": {"lang": "ar", "zipex": "51000", "isoid": "MT", "zip": "51", "lname": "Matruh Governorate", "key": "مطروح", "id": "data/EG/مطروح"}, "EG/المنيا": {"lang": "ar", "zipex": "61000", "isoid": "MN", "zip": "61", "lname": "Menia Governorate", "key": "المنيا", "id": "data/EG/المنيا"}, "EG/دمياط": {"lang": "ar", "zipex": "34000", "isoid": "DT", "zip": "34", "lname": "Damietta Governorate", "key": "دمياط", "id": "data/EG/دمياط"}, "EG/الغربية": {"lang": "ar", "zipex": "31000", "isoid": "GH", "zip": "31", "lname": "Gharbia Governorate", "key": "الغربية", "id": "data/EG/الغربية"}, "EG/سوهاج": {"lang": "ar", "zipex": "82000", "isoid": "SHG", "zip": "82", "lname": "Sohag Governorate", "key": "سوهاج", "id": "data/EG/سوهاج"}, "EG/المنوفية": {"lang": "ar", "zipex": "32000", "isoid": "MNF", "zip": "32", "lname": "Menofia Governorate", "key": "المنوفية", "id": "data/EG/المنوفية"}, "EG/أسيوط": {"lang": "ar", "zipex": "71000", "isoid": "AST", "zip": "71", "lname": "Asyut Governorate", "key": "أسيوط", "id": "data/EG/أسيوط"}, "EG/شمال سيناء": {"lang": "ar", "zipex": "45000", "isoid": "SIN", "zip": "45", "lname": "North Sinai Governorate", "key": "شمال سيناء", "id": "data/EG/شمال سيناء"}, "EG/الوادي الجديد": {"lang": "ar", "zipex": "72000", "isoid": "WAD", "zip": "72", "lname": "New Valley Governorate", "key": "الوادي الجديد", "id": "data/EG/الوادي الجديد"}, "EG/الجيزة": {"lang": "ar", "zipex": "12000", "isoid": "GZ", "zip": "12", "lname": "Giza Governorate", "key": "الجيزة", "id": "data/EG/الجيزة"}, "EG/أسوان": {"lang": "ar", "zipex": "81000", "isoid": "ASN", "zip": "81", "lname": "Aswan Governorate", "key": "أسوان", "id": "data/EG/أسوان"}, "EG/البحر الأحمر": {"lang": "ar", "zipex": "84000", "isoid": "BA", "zip": "84", "lname": "Red Sea Governorate", "key": "البحر الأحمر", "id": "data/EG/البحر الأحمر"}, "EG/الشرقية": {"lang": "ar", "zipex": "44000", "isoid": "SHR", "zip": "44", "lname": "Ash Sharqia Governorate", "key": "الشرقية", "id": "data/EG/الشرقية"}, "EG/الفيوم": {"lang": "ar", "zipex": "63000", "isoid": "FYM", "zip": "63", "lname": "Faiyum Governorate", "key": "الفيوم", "id": "data/EG/الفيوم"}, "EG/بني سويف": {"lang": "ar", "zipex": "62000", "isoid": "BNS", "zip": "62", "lname": "Beni Suef Governorate", "key": "بني سويف", "id": "data/EG/بني سويف"}, "EG/كفر الشيخ": {"lang": "ar", "zipex": "33000", "isoid": "KFS", "zip": "33", "lname": "Kafr El Sheikh Governorate", "key": "كفر الشيخ", "id": "data/EG/كفر الشيخ"}, "EG/قنا": {"lang": "ar", "zipex": "83000", "isoid": "KN", "zip": "83", "lname": "Qena Governorate", "key": "قنا", "id": "data/EG/قنا"}, "EG/الإسكندرية": {"lang": "ar", "zipex": "21000,23000", "isoid": "ALX", "zip": "2[13]", "lname": "Alexandria Governorate", "key": "الإسكندرية", "id": "data/EG/الإسكندرية"}, "EG/الدقهلية": {"lang": "ar", "zipex": "35000", "isoid": "DK", "zip": "35", "lname": "Dakahlia Governorate", "key": "الدقهلية", "id": "data/EG/الدقهلية"}, "EG": {"lang": "ar", "sub_zipexs": "81000~71000~21000,23000~41000~85000~84000~22000~12000~35000~43000~44000~31000~63000~11000~13000~32000~61000~72000~62000~42000~46000~34000~82000~45000~83000~33000~51000", "zipex": "12411,11599", "name": "EGYPT", "zip": "\\d{5}", "fmt": "%N%n%O%n%A%n%C%n%S%n%Z", "languages": "ar", "lfmt": "%N%n%O%n%A%n%C%n%S%n%Z", "sub_lnames": "Aswan Governorate~Asyut Governorate~Alexandria Governorate~Ismailia Governorate~Luxor Governorate~Red Sea Governorate~El Beheira Governorate~Giza Governorate~Dakahlia Governorate~Suez Governorate~Ash Sharqia Governorate~Gharbia Governorate~Faiyum Governorate~Cairo Governorate~Qalyubia Governorate~Menofia Governorate~Menia Governorate~New Valley Governorate~Beni Suef Governorate~Port Said Governorate~South Sinai Governorate~Damietta Governorate~Sohag Governorate~North Sinai Governorate~Qena Governorate~Kafr El Sheikh Governorate~Matruh Governorate", "sub_keys": "أسوان~أسيوط~الإسكندرية~الإسماعيلية~الأقصر~البحر الأحمر~البحيرة~الجيزة~الدقهلية~السويس~الشرقية~الغربية~الفيوم~القاهرة~القليوبية~المنوفية~المنيا~الوادي الجديد~بني سويف~بورسعيد~جنوب سيناء~دمياط~سوهاج~شمال سيناء~قنا~كفر الشيخ~مطروح", "key": "EG", "sub_isoids": "ASN~AST~ALX~IS~LX~BA~BH~GZ~DK~SUZ~SHR~GH~FYM~C~KB~MNF~MN~WAD~BNS~PTS~JS~DT~SHG~SIN~KN~KFS~MT", "id": "data/EG", "sub_zips": "81~71~2[13]~41~85~84~22~12~35~43~44~31~63~11~13~32~61~72~62~42~46~34~82~45~83~33~51"}}