{"MX/MEX": {"lang": "es", "zipex": "50000,57999", "name": "Estado de México", "zip": "5[0-7]", "key": "MEX", "id": "data/MX/MEX", "isoid": "MEX"}, "MX/ZAC": {"lang": "es", "zipex": "98000,99999", "name": "Zacatecas", "zip": "9[89]", "key": "ZAC", "id": "data/MX/ZAC", "isoid": "ZAC"}, "MX/MICH": {"lang": "es", "zipex": "58000,61999", "name": "Michoacán", "zip": "5[89]|6[01]", "key": "MICH", "id": "data/MX/MICH", "isoid": "MIC"}, "MX/CAMP": {"lang": "es", "zipex": "24000,24999", "name": "Campeche", "zip": "24", "key": "CAMP", "id": "data/MX/CAMP", "isoid": "CAM"}, "MX/JAL": {"lang": "es", "zipex": "44000,49999", "name": "Jalisco", "zip": "4[4-9]", "key": "JAL", "id": "data/MX/JAL", "isoid": "JAL"}, "MX/BC": {"lang": "es", "zipex": "21000,22999", "name": "Baja California", "zip": "2[12]", "key": "BC", "id": "data/MX/BC", "isoid": "BCN"}, "MX/COAH": {"lang": "es", "zipex": "25000,27999", "name": "Coahuila", "zip": "2[5-7]", "key": "COAH", "id": "data/MX/COAH", "isoid": "COA"}, "MX/NL": {"lang": "es", "zipex": "64000,67999", "name": "Nuevo León", "zip": "6[4-7]", "key": "NL", "id": "data/MX/NL", "isoid": "NLE"}, "MX/D.F.": {"lang": "es", "zipex": "00000,16999", "name": "Distrito Federal", "zip": "0|1[0-6]", "key": "D.F.", "id": "data/MX/D.F.", "isoid": "DIF"}, "MX/QROO": {"lang": "es", "zipex": "77000,77999", "name": "Quintana Roo", "zip": "77", "key": "QROO", "id": "data/MX/QROO", "isoid": "ROO"}, "MX/SON": {"lang": "es", "zipex": "83000,85999", "name": "Sonora", "zip": "8[3-5]", "key": "SON", "id": "data/MX/SON", "isoid": "SON"}, "MX/MOR": {"lang": "es", "zipex": "62000,62999", "name": "Morelos", "zip": "62", "key": "MOR", "id": "data/MX/MOR", "isoid": "MOR"}, "MX/TAB": {"lang": "es", "zipex": "86000,86999", "name": "Tabasco", "zip": "86", "key": "TAB", "id": "data/MX/TAB", "isoid": "TAB"}, "MX/TAMPS": {"lang": "es", "zipex": "87000,89999", "name": "Tamaulipas", "zip": "8[7-9]", "key": "TAMPS", "id": "data/MX/TAMPS", "isoid": "TAM"}, "MX/PUE": {"lang": "es", "zipex": "72000,75999", "name": "Puebla", "zip": "7[2-5]", "key": "PUE", "id": "data/MX/PUE", "isoid": "PUE"}, "MX/COL": {"lang": "es", "zipex": "28000,28999", "name": "Colima", "zip": "28", "key": "COL", "id": "data/MX/COL", "isoid": "COL"}, "MX/VER": {"lang": "es", "zipex": "91000,96999", "name": "Veracruz", "zip": "9[1-6]", "key": "VER", "id": "data/MX/VER", "isoid": "VER"}, "MX/HGO": {"lang": "es", "zipex": "42000,43999", "name": "Hidalgo", "zip": "4[23]", "key": "HGO", "id": "data/MX/HGO", "isoid": "HID"}, "MX/BCS": {"lang": "es", "zipex": "23000,23999", "name": "Baja California Sur", "zip": "23", "key": "BCS", "id": "data/MX/BCS", "isoid": "BCS"}, "MX/GRO": {"lang": "es", "zipex": "39000,41999", "name": "Guerrero", "zip": "39|4[01]", "key": "GRO", "id": "data/MX/GRO", "isoid": "GRO"}, "MX/YUC": {"lang": "es", "zipex": "97000,97999", "name": "Yucatán", "zip": "97", "key": "YUC", "id": "data/MX/YUC", "isoid": "YUC"}, "MX/GTO": {"lang": "es", "zipex": "36000,38999", "name": "Guanajuato", "zip": "3[6-8]", "key": "GTO", "id": "data/MX/GTO", "isoid": "GUA"}, "MX/DGO": {"lang": "es", "zipex": "34000,35999", "name": "Durango", "zip": "3[45]", "key": "DGO", "id": "data/MX/DGO", "isoid": "DUR"}, "MX/OAX": {"lang": "es", "zipex": "68000,71999", "name": "Oaxaca", "zip": "6[89]|7[01]", "key": "OAX", "id": "data/MX/OAX", "isoid": "OAX"}, "MX/TLAX": {"lang": "es", "zipex": "90000,90999", "name": "Tlaxcala", "zip": "90", "key": "TLAX", "id": "data/MX/TLAX", "isoid": "TLA"}, "MX/NAY": {"lang": "es", "zipex": "63000,63999", "name": "Nayarit", "zip": "63", "key": "NAY", "id": "data/MX/NAY", "isoid": "NAY"}, "MX/CHIH": {"lang": "es", "zipex": "31000,33999", "name": "Chihuahua", "zip": "3[1-3]", "key": "CHIH", "id": "data/MX/CHIH", "isoid": "CHH"}, "MX/SIN": {"lang": "es", "zipex": "80000,82999", "name": "Sinalóa", "zip": "8[0-2]", "key": "SIN", "id": "data/MX/SIN", "isoid": "SIN"}, "MX/CHIS": {"lang": "es", "zipex": "29000,30999", "name": "Chiapas", "zip": "29|30", "key": "CHIS", "id": "data/MX/CHIS", "isoid": "CHP"}, "MX/AGS": {"lang": "es", "zipex": "20000,20999", "name": "Aguascalientes", "zip": "20", "key": "AGS", "id": "data/MX/AGS", "isoid": "AGU"}, "MX/QRO": {"lang": "es", "zipex": "76000,76999", "name": "Querétaro", "zip": "76", "key": "QRO", "id": "data/MX/QRO", "isoid": "QUE"}, "MX": {"lang": "es", "upper": "CSZ", "sub_zipexs": "20000,20999~21000,22999~23000,23999~24000,24999~29000,30999~31000,33999~25000,27999~28000,28999~00000,16999~34000,35999~50000,57999~36000,38999~39000,41999~42000,43999~44000,49999~58000,61999~62000,62999~63000,63999~64000,67999~68000,71999~72000,75999~76000,76999~77000,77999~78000,79999~80000,82999~83000,85999~86000,86999~87000,89999~90000,90999~91000,96999~97000,97999~98000,99999", "zipex": "02860,77520,06082", "sub_zips": "20~2[12]~23~24~29|30~3[1-3]~2[5-7]~28~0|1[0-6]~3[45]~5[0-7]~3[6-8]~39|4[01]~4[23]~4[4-9]~5[89]|6[01]~62~63~6[4-7]~6[89]|7[01]~7[2-5]~76~77~7[89]~8[0-2]~8[3-5]~86~8[7-9]~90~9[1-6]~97~9[89]", "zip": "\\d{5}", "sublocality_name_type": "neighborhood", "fmt": "%N%n%O%n%A%n%D%n%Z %C, %S", "state_name_type": "state", "languages": "es", "sub_keys": "AGS~BC~BCS~CAMP~CHIS~CHIH~COAH~COL~D.F.~DGO~MEX~GTO~GRO~HGO~JAL~MICH~MOR~NAY~NL~OAX~PUE~QRO~QROO~SLP~SIN~SON~TAB~TAMPS~TLAX~VER~YUC~ZAC", "key": "MX", "sub_isoids": "AGU~BCN~BCS~CAM~CHP~CHH~COA~COL~DIF~DUR~MEX~GUA~GRO~HID~JAL~MIC~MOR~NAY~NLE~OAX~PUE~QUE~ROO~SLP~SIN~SON~TAB~TAM~TLA~VER~YUC~ZAC", "require": "ACZ", "posturl": "http://www.correosdemexico.gob.mx/ServiciosLinea/Paginas/ccpostales.aspx", "id": "data/MX", "sub_names": "Aguascalientes~Baja California~Baja California Sur~Campeche~Chiapas~Chihuahua~Coahuila~Colima~Distrito Federal~Durango~Estado de México~Guanajuato~Guerrero~Hidalgo~Jalisco~Michoacán~Morelos~Nayarit~Nuevo León~Oaxaca~Puebla~Querétaro~Quintana Roo~San Luís Potosí~Sinalóa~Sonora~Tabasco~Tamaulipas~Tlaxcala~Veracruz~Yucatán~Zacatecas", "name": "MEXICO"}, "MX/SLP": {"lang": "es", "zipex": "78000,79999", "name": "San Luís Potosí", "zip": "7[89]", "key": "SLP", "id": "data/MX/SLP", "isoid": "SLP"}}